[{"OBJECT_NAME":"COSMOS 2456 (730)","OBJECT_ID":"2009-070A","EPOCH":"2026-04-25T12:42:16.222752","MEAN_MOTION":2.13103441,"ECCENTRICITY":0.0006247,"INCLINATION":64.9822,"RA_OF_ASC_NODE":72.7669,"ARG_OF_PERICENTER":316.1187,"MEAN_ANOMALY":222.6685,"EPHEMERIS_TYPE":0,"CLASSIFICATION_TYPE":"U","NORAD_CAT_ID":36111,"ELEMENT_SET_NO":999,"REV_AT_EPOCH":12730,"BSTAR":0,"MEAN_MOTION_DOT":8.0e-8,"MEAN_MOTION_DDOT":0},{"OBJECT_NAME":"COSMOS 2457 (733)","OBJECT_ID":"2009-070B","EPOCH":"2026-04-25T02:36:56.100096","MEAN_MOTION":2.13100772,"ECCENTRICITY":0.00011558,"INCLINATION":64.9676,"RA_OF_ASC_NODE":72.6263,"ARG_OF_PERICENTER":164.575,"MEAN_ANOMALY":179.6091,"EPHEMERIS_TYPE":0,"CLASSIFICATION_TYPE":"U","NORAD_CAT_ID":36112,"ELEMENT_SET_NO":999,"REV_AT_EPOCH":12729,"BSTAR":0,"MEAN_MOTION_DOT":1.1e-7,"MEAN_MOTION_DDOT":0},{"OBJECT_NAME":"COSMOS 2460 (732)","OBJECT_ID":"2010-007C","EPOCH":"2026-04-25T14:26:57.400800","MEAN_MOTION":2.13105948,"ECCENTRICITY":0.0002277,"INCLINATION":65.4503,"RA_OF_ASC_NODE":316.2461,"ARG_OF_PERICENTER":66.9045,"MEAN_ANOMALY":297.1399,"EPHEMERIS_TYPE":0,"CLASSIFICATION_TYPE":"U","NORAD_CAT_ID":36402,"ELEMENT_SET_NO":999,"REV_AT_EPOCH":12561,"BSTAR":0,"MEAN_MOTION_DOT":-2.5e-7,"MEAN_MOTION_DDOT":0},{"OBJECT_NAME":"GPS BIIF-1  (PRN 25)","OBJECT_ID":"2010-022A","EPOCH":"2026-04-25T02:30:31.760928","MEAN_MOTION":2.00559747,"ECCENTRICITY":0.0126658,"INCLINATION":54.2773,"RA_OF_ASC_NODE":210.7001,"ARG_OF_PERICENTER":66.0807,"MEAN_ANOMALY":291.1096,"EPHEMERIS_TYPE":0,"CLASSIFICATION_TYPE":"U","NORAD_CAT_ID":36585,"ELEMENT_SET_NO":999,"REV_AT_EPOCH":11652,"BSTAR":0,"MEAN_MOTION_DOT":-4.1e-7,"MEAN_MOTION_DDOT":0},{"OBJECT_NAME":"BEIDOU-2 IGSO-1 (C06)","OBJECT_ID":"2010-036A","EPOCH":"2026-04-23T19:55:57.482688","MEAN_MOTION":1.00288096,"ECCENTRICITY":0.00583551,"INCLINATION":54.2917,"RA_OF_ASC_NODE":163.4511,"ARG_OF_PERICENTER":224.0017,"MEAN_ANOMALY":229.7808,"EPHEMERIS_TYPE":0,"CLASSIFICATION_TYPE":"U","NORAD_CAT_ID":36828,"ELEMENT_SET_NO":999,"REV_AT_EPOCH":5755,"BSTAR":0,"MEAN_MOTION_DOT":-1.09e-6,"MEAN_MOTION_DDOT":0},{"OBJECT_NAME":"BEIDOU-2 G4 (C04)","OBJECT_ID":"2010-057A","EPOCH":"2026-04-25T18:47:39.965280","MEAN_MOTION":1.00269984,"ECCENTRICITY":0.0006554,"INCLINATION":3.519,"RA_OF_ASC_NODE":69.2361,"ARG_OF_PERICENTER":213.0736,"MEAN_ANOMALY":13.3343,"EPHEMERIS_TYPE":0,"CLASSIFICATION_TYPE":"U","NORAD_CAT_ID":37210,"ELEMENT_SET_NO":999,"REV_AT_EPOCH":5676,"BSTAR":0,"MEAN_MOTION_DOT":-1.24e-6,"MEAN_MOTION_DDOT":0},{"OBJECT_NAME":"BEIDOU-2 IGSO-2 (C07)","OBJECT_ID":"2010-068A","EPOCH":"2026-04-25T08:58:19.046784","MEAN_MOTION":1.00299966,"ECCENTRICITY":0.005312,"INCLINATION":47.6474,"RA_OF_ASC_NODE":272.4838,"ARG_OF_PERICENTER":211.4498,"MEAN_ANOMALY":328.5931,"EPHEMERIS_TYPE":0,"CLASSIFICATION_TYPE":"U","NORAD_CAT_ID":37256,"ELEMENT_SET_NO":999,"REV_AT_EPOCH":5626,"BSTAR":0,"MEAN_MOTION_DOT":-2.13e-6,"MEAN_MOTION_DDOT":0},{"OBJECT_NAME":"BEIDOU-2 IGSO-3 (C08)","OBJECT_ID":"2011-013A","EPOCH":"2026-04-24T17:34:48.622080","MEAN_MOTION":1.00280536,"ECCENTRICITY":0.00337019,"INCLINATION":62.3393,"RA_OF_ASC_NODE":40.6572,"ARG_OF_PERICENTER":188.3614,"MEAN_ANOMALY":355.5484,"EPHEMERIS_TYPE":0,"CLASSIFICATION_TYPE":"U","NORAD_CAT_ID":37384,"ELEMENT_SET_NO":999,"REV_AT_EPOCH":5512,"BSTAR":0,"MEAN_MOTION_DOT":-2.01e-6,"MEAN_MOTION_DDOT":0},{"OBJECT_NAME":"GSAT-8 (GAGAN/PRN 127)","OBJECT_ID":"2011-022A","EPOCH":"2026-04-25T19:00:17.769312","MEAN_MOTION":1.00271516,"ECCENTRICITY":0.0004907,"INCLINATION":1.9975,"RA_OF_ASC_NODE":82.4269,"ARG_OF_PERICENTER":226.0434,"MEAN_ANOMALY":245.4835,"EPHEMERIS_TYPE":0,"CLASSIFICATION_TYPE":"U","NORAD_CAT_ID":37605,"ELEMENT_SET_NO":999,"REV_AT_EPOCH":5269,"BSTAR":0,"MEAN_MOTION_DOT":7.3e-7,"MEAN_MOTION_DDOT":0},{"OBJECT_NAME":"BEIDOU-2 IGSO-4 (C09)","OBJECT_ID":"2011-038A","EPOCH":"2026-04-20T22:49:52.538592","MEAN_MOTION":1.0025708,"ECCENTRICITY":0.01583758,"INCLINATION":54.5868,"RA_OF_ASC_NODE":166.1972,"ARG_OF_PERICENTER":231.6843,"MEAN_ANOMALY":245.893,"EPHEMERIS_TYPE":0,"CLASSIFICATION_TYPE":"U","NORAD_CAT_ID":37763,"ELEMENT_SET_NO":999,"REV_AT_EPOCH":5407,"BSTAR":0,"MEAN_MOTION_DOT":-1.5e-7,"MEAN_MOTION_DDOT":0},{"OBJECT_NAME":"GSAT0101 (GALILEO-PFM)","OBJECT_ID":"2011-060A","EPOCH":"2026-04-23T07:06:19.793088","MEAN_MOTION":1.70475605,"ECCENTRICITY":0.00037725,"INCLINATION":57.0105,"RA_OF_ASC_NODE":343.2506,"ARG_OF_PERICENTER":24.6527,"MEAN_ANOMALY":335.4053,"EPHEMERIS_TYPE":0,"CLASSIFICATION_TYPE":"U","NORAD_CAT_ID":37846,"ELEMENT_SET_NO":999,"REV_AT_EPOCH":9018,"BSTAR":0,"MEAN_MOTION_DOT":-8.7e-7,"MEAN_MOTION_DDOT":0},{"OBJECT_NAME":"GSAT0102 (GALILEO-FM2)","OBJECT_ID":"2011-060B","EPOCH":"2026-04-25T06:44:35.935008","MEAN_MOTION":1.70475917,"ECCENTRICITY":0.0004719,"INCLINATION":57.011,"RA_OF_ASC_NODE":343.1972,"ARG_OF_PERICENTER":9.0108,"MEAN_ANOMALY":174.7955,"EPHEMERIS_TYPE":0,"CLASSIFICATION_TYPE":"U","NORAD_CAT_ID":37847,"ELEMENT_SET_NO":999,"REV_AT_EPOCH":9022,"BSTAR":0,"MEAN_MOTION_DOT":-9.0e-7,"MEAN_MOTION_DDOT":0},{"OBJECT_NAME":"COSMOS 2476 (744)","OBJECT_ID":"2011-064A","EPOCH":"2026-04-25T15:22:29.441856","MEAN_MOTION":2.13103647,"ECCENTRICITY":0.0024289,"INCLINATION":65.2415,"RA_OF_ASC_NODE":74.6442,"ARG_OF_PERICENTER":242.1943,"MEAN_ANOMALY":290.2948,"EPHEMERIS_TYPE":0,"CLASSIFICATION_TYPE":"U","NORAD_CAT_ID":37867,"ELEMENT_SET_NO":999,"REV_AT_EPOCH":11264,"BSTAR":0,"MEAN_MOTION_DOT":1.3e-7,"MEAN_MOTION_DDOT":0},{"OBJECT_NAME":"COSMOS 2477 (745)","OBJECT_ID":"2011-064B","EPOCH":"2026-04-25T09:55:19.123392","MEAN_MOTION":2.13102721,"ECCENTRICITY":0.0021218,"INCLINATION":65.2482,"RA_OF_ASC_NODE":74.7307,"ARG_OF_PERICENTER":243.9746,"MEAN_ANOMALY":294.7055,"EPHEMERIS_TYPE":0,"CLASSIFICATION_TYPE":"U","NORAD_CAT_ID":37868,"ELEMENT_SET_NO":999,"REV_AT_EPOCH":11263,"BSTAR":0,"MEAN_MOTION_DOT":1.5e-7,"MEAN_MOTION_DDOT":0},{"OBJECT_NAME":"COSMOS 2475 (743)","OBJECT_ID":"2011-064C","EPOCH":"2026-04-24T18:33:13.021632","MEAN_MOTION":2.13101455,"ECCENTRICITY":0.0027333,"INCLINATION":65.2548,"RA_OF_ASC_NODE":74.7734,"ARG_OF_PERICENTER":255.5304,"MEAN_ANOMALY":107.2412,"EPHEMERIS_TYPE":0,"CLASSIFICATION_TYPE":"U","NORAD_CAT_ID":37869,"ELEMENT_SET_NO":999,"REV_AT_EPOCH":11263,"BSTAR":0,"MEAN_MOTION_DOT":1.9e-7,"MEAN_MOTION_DDOT":0},{"OBJECT_NAME":"BEIDOU-2 IGSO-5 (C10)","OBJECT_ID":"2011-073A","EPOCH":"2026-04-24T21:42:21.566592","MEAN_MOTION":1.0026042,"ECCENTRICITY":0.01105716,"INCLINATION":47.7775,"RA_OF_ASC_NODE":272.2003,"ARG_OF_PERICENTER":220.5837,"MEAN_ANOMALY":139.3975,"EPHEMERIS_TYPE":0,"CLASSIFICATION_TYPE":"U","NORAD_CAT_ID":37948,"ELEMENT_SET_NO":999,"REV_AT_EPOCH":5260,"BSTAR":0,"MEAN_MOTION_DOT":-1.95e-6,"MEAN_MOTION_DDOT":0},{"OBJECT_NAME":"LUCH 5A (SDCM/PRN 140)","OBJECT_ID":"2011-074B","EPOCH":"2026-04-25T18:39:20.271744","MEAN_MOTION":1.00272711,"ECCENTRICITY":0.0002714,"INCLINATION":8.6237,"RA_OF_ASC_NODE":74.5624,"ARG_OF_PERICENTER":302.6373,"MEAN_ANOMALY":283.3454,"EPHEMERIS_TYPE":0,"CLASSIFICATION_TYPE":"U","NORAD_CAT_ID":37951,"ELEMENT_SET_NO":999,"REV_AT_EPOCH":5252,"BSTAR":0,"MEAN_MOTION_DOT":-5.7e-7,"MEAN_MOTION_DDOT":0}]
